5D/Brorsen,e,18.6308,94.9065,20.3028,3.158453,0.1755870,0.83787453,139.0054,06/17.0/2025,2000,g 10.5,6.0
# From MPEC 2022-WD2
6P/d'Arrest,e,19.4998,138.9508,178.0512,3.497685,0.1506722,0.61192337,206.3675,06/17.0/2025,2000,g  7.5,16.0
# From MPEC 2023-A50
7P/Pons-Winnecke,e,22.5932,93.2825,172.5392,3.390183,0.1578954,0.64775606,232.9766,06/17.0/2025,2000,g 10.0,6.0
# From MPEC 2022-HC2
8P/Tuttle,e,54.9840,270.1770,207.4758,5.705427,0.0723222,0.82069815,100.4128,06/17.0/2025,2000,g  8.0,8.0
# From MPEC 2024-YC7
9P/Tempel,e,10.6630,67.3208,184.4532,3.286739,0.1654079,0.47324611,200.6280,06/17.0/2025,2000,g  5.5,10.0
# From MPC184415
10P/Tempel,e,12.0274,117.8006,195.4925,3.063864,0.1837807,0.53738263,284.4385,06/17.0/2025,2000,g  5.0,10.0
# From MPEC 2024-R10
11P/Tempel-Swift-LINEAR,e,14.4328,238.8630,168.0497,3.283217,0.1656742,0.57745154,275.3630,06/17.0/2025,2000,g 17.0,4.0
# From MPC184415
12P/Pons-Brooks,e,74.1894,255.8566,199.0075,17.23004,0.0137808,0.95466523,5.8136,06/17.0/2025,2000,g  5.0,6.0
# From MPC184415
13P/Olbers,e,44.6658,85.8467,64.4224,16.90766,0.0141768,0.93047812,4.9892,06/17.0/2025,2000,g  5.0,6.0
# From MPC184415
14P/Wolf,e,27.9181,202.0237,159.1938,4.256526,0.1122331,0.35667591,308.4852,06/17.0/2025,2000,g  5.5,12.0
# From MPEC 2022-ED3
15P/Finlay,e,6.7873,13.7487,347.8659,3.510929,0.1498204,0.71611722,215.0095,06/17.0/2025,2000,g 12.0,4.0
# From MPEC 2022-X67
16P/Brooks,e,3.0099,138.8257,245.3738,3.662080,0.1406411,0.48562507,213.8868,06/17.0/2025,2000,g  7.5,10.0
# From MPEC 2023-J29
17P/Holmes,e,19.0069,326.6088,24.6149,3.641531,0.1418333,0.42632302,224.0223,06/17.0/2025,2000,g 10.0,6.0
# From  19, 80
18D/Perrine-Mrkos,e,17.660,158.451,238.208,3.88100,0.128911,0.5895274,37.622,06/17.0/2025,2000,g  9.0,4.0
# From MPEC 2024-YC7
19P/Borrelly,e,29.3156,74.2151,352.0070,3.608440,0.1437887,0.63777630,176.9562,06/17.0/2025,2000,g  4.5,10.0
# From MPEC 2024-YC7
21P/Giacobini-Zinner,e,32.0498,195.3300,172.9346,3.491786,0.1510542,0.71105122,12.6344,06/17.0/2025,2000,g  9.0,6.0
# From MPEC 2024-L77
22P/Kopff,e,4.8206,120.2068,162.9728,3.413463,0.1562829,0.55816246,184.7292,06/17.0/2025,2000,g  3.0,10.4
# From MPC 14747
23P/Brorsen-Metcalf,e,19.4661,311.1807,129.9820,16.93916,0.0141373,0.97258474,0.0000,05/31.5876/2059,2000,g 10.0,6.0
# From MPC110085
24P/Schaumasse,e,11.5063,78.3675,58.3997,4.057026,0.1206125,0.70819273,335.2382,06/17.0/2025,2000,g  6.5,14.0
# From NK 378
25D/Neujmin 2,e,2.8087,279.9712,244.7978,3.221421,0.1704641,0.55041042,6.2364,06/17.0/2025,2000,g 12.5,6.0
# From MPEC 2024-TP3
26P/Grigg-Skjellerup,e,22.4370,211.5317,2.1238,3.014582,0.1883057,0.64060443,101.6257,06/17.0/2025,2000,g 12.0,16.0
# From MPC 78188
27P/Crommelin,e,29.4344,250.7049,195.8476,9.179086,0.0354409,0.91964504,179.5863,06/17.0/2025,2000,g 12.0,8.0
# From MPEC 2025-A40
28P/Neujmin,e,14.2928,346.4110,347.4501,6.980740,0.0534382,0.77268146,83.3509,06/17.0/2025,2000,g  8.5,6.0
# From MPC184415
29P/Schwassmann-Wachmann,e,9.3559,312.4037,52.0823,6.056799,0.0661210,0.04328676,147.9904,06/17.0/2025,2000,g  4.0,4.0
# From MPC184416
30P/Reinmuth,e,8.0533,117.2329,9.5144,3.735348,0.1365235,0.51439835,41.4716,06/17.0/2025,2000,g  9.5,6.0
# From MPEC 2025-A40
31P/Schwassmann-Wachmann,e,4.5497,114.1132,17.9112,4.230971,0.1132515,0.19342579,246.0886,06/17.0/2025,2000,g  5.0,8.0
# From MPC184416
32P/ComasSola,e,9.9200,54.5324,54.7070,4.554046,0.1014163,0.55530561,42.8293,06/17.0/2025,2000,g  6.5,8.0
# From MPC184416
33P/Daniel,e,22.2940,66.2800,20.2559,4.091714,0.1190820,0.45194590,25.9737,06/17.0/2025,2000,g 10.0,12.0
# From  9, 314
34D/Gale,e,10.5825,57.8620,218.0352,5.017549,0.0876933,0.75808861,321.9221,06/17.0/2025,2000,g  9.0,4.0
# From  15, 452
35P/Herschel-Rigollet,e,64.530,356.183,29.218,28.5382,0.006465,0.9742947,0.000,04/09.4542/2092,2000,g  9.0,4.0
# From MPEC 2023-RF3
36P/Whipple,e,9.9459,181.8268,201.2042,4.141250,0.1169518,0.26813340,215.3323,06/17.0/2025,2000,g  8.5,6.0
# From MPC184416
37P/Forbes,e,8.9478,314.5485,330.0619,3.461805,0.1530207,0.53265917,38.0659,06/17.0/2025,2000,g 10.5,4.8
# From MPEC 2024-YC7
38P/Stephan-Oterma,e,18.4143,77.8611,359.5918,11.26463,0.0260693,0.85977385,62.7525,06/17.0/2025,2000,g  3.5,12.0
# From MPEC 2024-AF0
39P/Oterma,e,1.7239,289.1851,115.1242,6.961454,0.0536604,0.17204691,34.7218,06/17.0/2025,2000,g  7.0,6.0
# From MPC184416
40P/Vaisala,e,11.6402,128.8984,52.0387,4.949469,0.0895089,0.63154574,346.7606,06/17.0/2025,2000,g  5.5,12.0
# From MPEC 2023-SQ0
41P/Tuttle-Giacobini-Kresak,e,9.2162,140.9720,62.2164,3.087776,0.1816500,0.65964422,183.0489,06/17.0/2025,2000,g 10.0,16.0
# From MPC184416
42P/Neujmin,e,3.9883,150.1597,147.1328,4.879449,0.0914425,0.58406711,340.6175,06/17.0/2025,2000,g 13.0,6.0
# From MPC184416
43P/Wolf-Harrington,e,9.3318,243.9933,223.8053,4.333200,0.1092675,0.43624148,354.6795,06/17.0/2025,2000,g  8.0,6.0
# From MPEC 2024-F34
44P/Reinmuth,e,5.8959,286.4218,57.9932,3.687778,0.1391736,0.42674147,160.3189,06/17.0/2025,2000,g  8.3,6.0
# From MPEC 2022-O01
45P/Honda-Mrkos-Pajdusakova,e,4.3240,87.6863,327.9501,3.056814,0.1844168,0.81761329,211.4536,06/17.0/2025,2000,g 13.5,8.0
# From MPEC 2024-F91
46P/Wirtanen,e,11.7497,82.1618,356.3422,3.092033,0.1812750,0.65871950,71.4049,06/17.0/2025,2000,g 14.0,6.0
# From MPC184416
47P/Ashbrook-Jackson,e,13.0385,356.8824,357.9105,4.117687,0.1179571,0.31819119,344.3145,06/17.0/2025,2000,g  1.0,11.2
# From MPC184416
48P/Johnson,e,12.2017,110.0640,216.7743,3.499130,0.1505788,0.42654615,16.0153,06/17.0/2025,2000,g 10.0,6.0
# From MPC184416
49P/Arend-Rigaux,e,19.0597,118.7911,332.9269,3.569552,0.1461448,0.59901631,9.8493,06/17.0/2025,2000,g 11.3,4.4
# From MPC184417
50P/Arend,e,19.1006,355.1446,49.3119,4.086551,0.1193078,0.52969659,47.7676,06/17.0/2025,2000,g  9.5,6.0
# From MPEC 2023-J29
51P/Harrington,e,5.4264,83.6588,269.2332,3.705374,0.1381834,0.54277782,136.8480,06/17.0/2025,2000,g 10.0,8.0
# From NK 3014
51P-A/Harrington,e,5.4262,269.2294,83.6426,3.706616,0.1381140,0.54297133,136.4229,06/17.0/2025,2000,g 10.0,8.0
# From MPEC 2023-J29
51P-D/Harrington,e,5.4269,83.6470,269.2513,3.705726,0.1381637,0.54290789,136.7700,06/17.0/2025,2000,g 16.0,8.0
# From MPEC 2023-XP6
52P/Harrington-Abell,e,10.2379,336.7540,139.6158,3.862081,0.1298590,0.54109969,175.2754,06/17.0/2025,2000,g 13.5,6.0
# From MPEC 2023-TM6
53P/VanBiesbroeck,e,6.6025,148.8520,134.3389,5.439400,0.0776922,0.54965427,259.9189,06/17.0/2025,2000,g  7.7,4.8
# From MPEC 2024-YC7
54P/deVico-Swift-NEAT,e,6.0620,358.7449,2.0950,3.791123,0.1335218,0.42708374,38.1650,06/17.0/2025,2000,g 10.0,6.0
# From MPC 31070
55P/Tempel-Tuttle,e,162.4839,235.4114,172.4936,10.33728,0.0296548,0.90573326,295.7802,06/17.0/2025,2000,g  9.0,4.0
# From MPEC 2023-TM6
56P/Slaughter-Burnham,e,8.1549,345.8885,44.2195,5.063226,0.0865094,0.50834836,280.8040,06/17.0/2025,2000,g  8.5,6.0
# From MPEC 2024-DC6
57P/duToit-Neujmin-Delporte,e,2.8532,188.7406,115.0592,3.440884,0.1544184,0.50130858,206.8561,06/17.0/2025,2000,g 12.5,6.0
# From MPEC 2024-A43
58P/Jackson-Neujmin,e,13.0877,159.0401,200.5827,4.091201,0.1191044,0.66165834,220.0155,06/17.0/2025,2000,g 15.5,6.0
# From MPEC 2023-A50
59P/Kearns-Kwee,e,9.3559,312.7286,127.6690,4.479126,0.1039715,0.47703022,255.7728,06/17.0/2025,2000,g  7.0,6.0
# From MPC182887
60P/Tsuchinshan,e,3.5799,267.3963,216.9153,3.530216,0.1485943,0.53382418,355.0054,06/17.0/2025,2000,g 11.5,6.0
# From MPEC 2024-JU4
61P/Shajn-Schaldach,e,5.9968,162.9613,221.7086,3.690565,0.1390160,0.42306734,134.5110,06/17.0/2025,2000,g  6.0,10.0
# From MPC182887
62P/Tsuchinshan,e,4.7370,68.6656,47.3315,3.371086,0.1592390,0.62471121,85.9570,06/17.0/2025,2000,g  8.0,10.0
# From MPC 84320
63P/Wild,e,19.6195,357.7663,168.7946,5.651272,0.0733643,0.65079362,331.8082,06/17.0/2025,2000,g 10.5,6.0
# From MPEC 2024-A43
64P/Swift-Gehrels,e,8.9539,299.7725,97.3350,4.452232,0.1049150,0.68843235,253.1940,06/17.0/2025,2000,g  9.5,12.0
# From MPC184417
65P/Gunn,e,9.1753,61.9756,213.6748,3.892031,0.1283629,0.24814185,0.0672,06/17.0/2025,2000,g  5.0,6.0
# From MPEC 2021-F20
66P/duToit,e,18.6451,21.8377,257.3843,6.070432,0.0658984,0.78496589,170.8292,06/17.0/2025,2000,g 15.0,4.0
# From MPEC 2024-C04
67P/Churyumov-Gerasimenko,e,3.8684,36.3145,22.2113,3.458615,0.1532324,0.64983640,202.6159,06/17.0/2025,2000,g 11.0,4.0
# From MPEC 2023-HD1
68P/Klemola,e,11.0994,175.0916,153.2221,4.963578,0.0891275,0.63577147,182.6999,06/17.0/2025,2000,g 12.6,4.0
# From MPEC 2024-C04
69P/Taylor,e,22.0613,104.8080,343.4976,3.880388,0.1289411,0.41469119,293.8083,06/17.0/2025,2000,g  9.5,12.0
# From MPEC 2023-VM5
70P/Kojima,e,6.6030,119.2353,1.7931,3.675421,0.1398761,0.45479770,184.7557,06/17.0/2025,2000,g 11.0,6.0
# From MPEC 2024-YC7
71P/Clark,e,9.2992,59.2415,210.4008,3.174680,0.1742425,0.48713301,152.8854,06/17.0/2025,2000,g  9.8,6.0
# From MPEC 2023-VM5
72P/Denning-Fujikawa,e,10.9438,26.7209,346.7422,4.307610,0.1102426,0.81833604,80.7444,06/17.0/2025,2000,g 17.5,10.0
# From MPEC 2023-RF3
73P/Schwassmann-Wachmann,e,7.3749,59.9072,207.5421,3.027948,0.1870602,0.71867321,190.1327,06/17.0/2025,2000,g 11.5,6.0
# From NK 1613
73P-B/Schwassmann-Wachmann B,e,10.6743,192.9773,75.3697,3.073007,0.1829611,0.69623013,186.3157,06/17.0/2025,2000,g  9.0,4.0
# From NK 2710
73P-C/Schwassmann-Wachmann,e,10.6866,193.1549,75.2285,3.071578,0.1830888,0.69604855,187.1751,06/17.0/2025,2000,g  9.0,4.0
# From NK 934
73P-E/Schwassmann-Wachmann,e,10.6426,192.6585,75.6552,3.077031,0.1826023,0.69655291,184.3765,06/17.0/2025,2000,g  9.0,4.0
# From MPC 56796
73P-G/Schwassmann-Wachmann,e,11.388,69.909,198.772,3.06230,0.183922,0.6933024,359.982,06/08.0/2006,2000,g  9.0,4.0
# From MPC 56796
73P-H/Schwassmann-Wachmann,e,11.389,69.903,198.778,3.06223,0.183927,0.6933024,359.948,06/08.0/2006,2000,g  9.0,4.0
# From MPC 56796
73P-J/Schwassmann-Wachmann,e,11.386,69.983,198.673,3.06380,0.183786,0.6933024,359.974,06/08.0/2006,2000,g  9.0,4.0
# From MPC 56797
73P-K/Schwassmann-Wachmann,e,11.390,69.881,198.809,3.06176,0.183970,0.6933024,359.959,06/08.0/2006,2000,g  9.0,4.0
